{"fetched_at":"2026-07-11T06:35:05.049Z","source":"https://celestrak.org/NORAD/elements/gp.php?GROUP=kuiper&FORMAT=JSON","constellation":"kuiper","records":[{"OBJECT_NAME":"KUIPER-00117","OBJECT_ID":"2025-228C","EPOCH":"2026-07-09T23:52:13.623168","CLASSIFICATION_TYPE":"U","MEAN_MOTION":14.7992431,"ECCENTRICITY":0.0000599,"INCLINATION":51.8971,"RA_OF_ASC_NODE":177.2429,"ARG_OF_PERICENTER":68.452,"MEAN_ANOMALY":291.6506,"EPHEMERIS_TYPE":0,"NORAD_CAT_ID":65949,"ELEMENT_SET_NO":999,"REV_AT_EPOCH":4137,"BSTAR":0.00025645232,"MEAN_MOTION_DOT":0.00001734,"MEAN_MOTION_DDOT":0},{"OBJECT_NAME":"KUIPER-00121","OBJECT_ID":"2025-228D","EPOCH":"2026-07-09T23:11:21.811488","CLASSIFICATION_TYPE":"U","MEAN_MOTION":14.79936798,"ECCENTRICITY":0.00005711,"INCLINATION":51.8986,"RA_OF_ASC_NODE":172.3806,"ARG_OF_PERICENTER":60.9068,"MEAN_ANOMALY":299.1952,"EPHEMERIS_TYPE":0,"NORAD_CAT_ID":65950,"ELEMENT_SET_NO":999,"REV_AT_EPOCH":4144,"BSTAR":0.000256756,"MEAN_MOTION_DOT":0.00001737,"MEAN_MOTION_DDOT":0},{"OBJECT_NAME":"KUIPER-00122","OBJECT_ID":"2025-228E","EPOCH":"2026-07-09T16:26:51.517536","CLASSIFICATION_TYPE":"U","MEAN_MOTION":14.79931187,"ECCENTRICITY":0.0000489,"INCLINATION":51.8983,"RA_OF_ASC_NODE":183.5962,"ARG_OF_PERICENTER":71.3134,"MEAN_ANOMALY":288.7881,"EPHEMERIS_TYPE":0,"NORAD_CAT_ID":65951,"ELEMENT_SET_NO":999,"REV_AT_EPOCH":4126,"BSTAR":0.00024568075,"MEAN_MOTION_DOT":0.00001652,"MEAN_MOTION_DDOT":0},{"OBJECT_NAME":"KUIPER-00123","OBJECT_ID":"2025-228F","EPOCH":"2026-07-10T09:27:53.502336","CLASSIFICATION_TYPE":"U","MEAN_MOTION":14.79939352,"ECCENTRICITY":0.00005205,"INCLINATION":51.8966,"RA_OF_ASC_NODE":180.473,"ARG_OF_PERICENTER":47.6866,"MEAN_ANOMALY":312.414,"EPHEMERIS_TYPE":0,"NORAD_CAT_ID":65952,"ELEMENT_SET_NO":999,"REV_AT_EPOCH":4136,"BSTAR":0.00021003093,"MEAN_MOTION_DOT":0.00001381,"MEAN_MOTION_DDOT":0},{"OBJECT_NAME":"KUIPER-00124","OBJECT_ID":"2025-228G","EPOCH":"2026-07-10T08:02:18.078144","CLASSIFICATION_TYPE":"U","MEAN_MOTION":14.79936599,"ECCENTRICITY":0.00005382,"INCLINATION":51.898,"RA_OF_ASC_NODE":173.2244,"ARG_OF_PERICENTER":68.2055,"MEAN_ANOMALY":291.8964,"EPHEMERIS_TYPE":0,"NORAD_CAT_ID":65953,"ELEMENT_SET_NO":999,"REV_AT_EPOCH":4146,"BSTAR":0.00017299504,"MEAN_MOTION_DOT":0.00001098,"MEAN_MOTION_DDOT":0},{"OBJECT_NAME":"KUIPER-00125","OBJECT_ID":"2025-228H","EPOCH":"2026-07-10T06:48:23.389056","CLASSIFICATION_TYPE":"U","MEAN_MOTION":14.79925429,"ECCENTRICITY":0.00006399,"INCLINATION":51.8986,"RA_OF_ASC_NODE":158.4948,"ARG_OF_PERICENTER":78.6434,"MEAN_ANOMALY":281.46,"EPHEMERIS_TYPE":0,"NORAD_CAT_ID":65954,"ELEMENT_SET_NO":999,"REV_AT_EPOCH":4166,"BSTAR":0.00026435169,"MEAN_MOTION_DOT":0.00001794,"MEAN_MOTION_DDOT":0},{"OBJECT_NAME":"KUIPER-00126","OBJECT_ID":"2025-228J","EPOCH":"2026-07-10T08:43:09.686784","CLASSIFICATION_TYPE":"U","MEAN_MOTION":14.79939061,"ECCENTRICITY":0.00006429,"INCLINATION":51.8986,"RA_OF_ASC_NODE":178.1292,"ARG_OF_PERICENTER":70.223,"MEAN_ANOMALY":289.8801,"EPHEMERIS_TYPE":0,"NORAD_CAT_ID":65955,"ELEMENT_SET_NO":999,"REV_AT_EPOCH":4139,"BSTAR":0.00024148798,"MEAN_MOTION_DOT":0.00001621,"MEAN_MOTION_DDOT":0},{"OBJECT_NAME":"KUIPER-00127","OBJECT_ID":"2025-228K","EPOCH":"2026-07-09T17:55:18.924384","CLASSIFICATION_TYPE":"U","MEAN_MOTION":14.79918988,"ECCENTRICITY":0.00006619,"INCLINATION":51.9002,"RA_OF_ASC_NODE":173.3255,"ARG_OF_PERICENTER":72.4701,"MEAN_ANOMALY":287.6334,"EPHEMERIS_TYPE":0,"NORAD_CAT_ID":65956,"ELEMENT_SET_NO":999,"REV_AT_EPOCH":4141,"BSTAR":0.00026014774,"MEAN_MOTION_DOT":0.00001762,"MEAN_MOTION_DDOT":0},{"OBJECT_NAME":"KUIPER-00128","OBJECT_ID":"2025-228L","EPOCH":"2026-07-10T08:06:12.326688","CLASSIFICATION_TYPE":"U","MEAN_MOTION":14.79934195,"ECCENTRICITY":0.00005745,"INCLINATION":51.9004,"RA_OF_ASC_NODE":170.7778,"ARG_OF_PERICENTER":69.9768,"MEAN_ANOMALY":290.1256,"EPHEMERIS_TYPE":0,"NORAD_CAT_ID":65957,"ELEMENT_SET_NO":999,"REV_AT_EPOCH":4149,"BSTAR":0.00025251067,"MEAN_MOTION_DOT":0.00001704,"MEAN_MOTION_DDOT":0},{"OBJECT_NAME":"KUIPER-00129","OBJECT_ID":"2025-228M","EPOCH":"2026-07-10T07:25:21.079200","CLASSIFICATION_TYPE":"U","MEAN_MOTION":14.79935217,"ECCENTRICITY":0.00005717,"INCLINATION":51.8987,"RA_OF_ASC_NODE":165.8844,"ARG_OF_PERICENTER":71.8997,"MEAN_ANOMALY":288.2028,"EPHEMERIS_TYPE":0,"NORAD_CAT_ID":65958,"ELEMENT_SET_NO":999,"REV_AT_EPOCH":4156,"BSTAR":0.00025195769,"MEAN_MOTION_DOT":0.000017,"MEAN_MOTION_DDOT":0},{"OBJECT_NAME":"KUIPER-00130","OBJECT_ID":"2025-228N","EPOCH":"2026-07-09T15:57:35.073792","CLASSIFICATION_TYPE":"U","MEAN_MOTION":14.79985248,"ECCENTRICITY":0.00022754,"INCLINATION":51.904,"RA_OF_ASC_NODE":171.265,"ARG_OF_PERICENTER":267.1115,"MEAN_ANOMALY":92.9587,"EPHEMERIS_TYPE":0,"NORAD_CAT_ID":65959,"ELEMENT_SET_NO":999,"REV_AT_EPOCH":3172,"BSTAR":-0.0022306148,"MEAN_MOTION_DOT":-0.00017205,"MEAN_MOTION_DDOT":0},{"OBJECT_NAME":"KUIPER-00134","OBJECT_ID":"2025-228P","EPOCH":"2026-07-10T08:12:01.389600","CLASSIFICATION_TYPE":"U","MEAN_MOTION":15.41755022,"ECCENTRICITY":0.00070154,"INCLINATION":51.8718,"RA_OF_ASC_NODE":84.6633,"ARG_OF_PERICENTER":36.2596,"MEAN_ANOMALY":323.8867,"EPHEMERIS_TYPE":0,"NORAD_CAT_ID":65960,"ELEMENT_SET_NO":999,"REV_AT_EPOCH":4269,"BSTAR":0.00072152429,"MEAN_MOTION_DOT":0.00030741,"MEAN_MOTION_DDOT":0},{"OBJECT_NAME":"KUIPER-00135","OBJECT_ID":"2025-228Q","EPOCH":"2026-07-09T15:09:03.705696","CLASSIFICATION_TYPE":"U","MEAN_MOTION":14.79924893,"ECCENTRICITY":0.00005343,"INCLINATION":51.9006,"RA_OF_ASC_NODE":171.4694,"ARG_OF_PERICENTER":72.1439,"MEAN_ANOMALY":287.9582,"EPHEMERIS_TYPE":0,"NORAD_CAT_ID":65961,"ELEMENT_SET_NO":999,"REV_AT_EPOCH":4142,"BSTAR":0.00013983423,"MEAN_MOTION_DOT":0.00000845,"MEAN_MOTION_DDOT":0},{"OBJECT_NAME":"KUIPER-00136","OBJECT_ID":"2025-228R","EPOCH":"2026-07-10T08:13:57.544032","CLASSIFICATION_TYPE":"U","MEAN_MOTION":14.79939261,"ECCENTRICITY":0.00006596,"INCLINATION":51.9002,"RA_OF_ASC_NODE":165.7776,"ARG_OF_PERICENTER":60.8304,"MEAN_ANOMALY":299.2724,"EPHEMERIS_TYPE":0,"NORAD_CAT_ID":65962,"ELEMENT_SET_NO":999,"REV_AT_EPOCH":4156,"BSTAR":0.0002585147,"MEAN_MOTION_DOT":0.0000175,"MEAN_MOTION_DDOT":0},{"OBJECT_NAME":"KUIPER-00137","OBJECT_ID":"2025-228S","EPOCH":"2026-07-10T08:17:50.791200","CLASSIFICATION_TYPE":"U","MEAN_MOTION":14.79940713,"ECCENTRICITY":0.00007002,"INCLINATION":51.9017,"RA_OF_ASC_NODE":163.259,"ARG_OF_PERICENTER":68.1165,"MEAN_ANOMALY":291.9872,"EPHEMERIS_TYPE":0,"NORAD_CAT_ID":65963,"ELEMENT_SET_NO":999,"REV_AT_EPOCH":4160,"BSTAR":0.00025933278,"MEAN_MOTION_DOT":0.00001757,"MEAN_MOTION_DDOT":0},{"OBJECT_NAME":"KUIPER-00138","OBJECT_ID":"2025-228T","EPOCH":"2026-07-10T07:33:07.223616","CLASSIFICATION_TYPE":"U","MEAN_MOTION":14.79931296,"ECCENTRICITY":0.00006624,"INCLINATION":51.8966,"RA_OF_ASC_NODE":160.8263,"ARG_OF_PERICENTER":73.8645,"MEAN_ANOMALY":286.239,"EPHEMERIS_TYPE":0,"NORAD_CAT_ID":65964,"ELEMENT_SET_NO":999,"REV_AT_EPOCH":4163,"BSTAR":0.0002611498,"MEAN_MOTION_DOT":0.0000177,"MEAN_MOTION_DDOT":0}]}
